[{"OBJECT_NAME":"RANGE-A","OBJECT_ID":"2018-099R","EPOCH":"2026-03-09T16:56:29.908608","MEAN_MOTION":15.1245864,"ECCENTRICITY":0.00096737,"INCLINATION":97.4107,"RA_OF_ASC_NODE":114.1927,"ARG_OF_PERICENTER":340.4473,"MEAN_ANOMALY":19.6386,"EPHEMERIS_TYPE":0,"CLASSIFICATION_TYPE":"U","NORAD_CAT_ID":43773,"ELEMENT_SET_NO":999,"REV_AT_EPOCH":39745,"BSTAR":0.00032165687,"MEAN_MOTION_DOT":5.536e-5,"MEAN_MOTION_DDOT":0},{"OBJECT_NAME":"TIANQI-14","OBJECT_ID":"2021-055E","EPOCH":"2026-03-09T21:13:53.334048","MEAN_MOTION":15.12385268,"ECCENTRICITY":0.00041067,"INCLINATION":35.0005,"RA_OF_ASC_NODE":333.4675,"ARG_OF_PERICENTER":169.8812,"MEAN_ANOMALY":190.1982,"EPHEMERIS_TYPE":0,"CLASSIFICATION_TYPE":"U","NORAD_CAT_ID":48864,"ELEMENT_SET_NO":999,"REV_AT_EPOCH":25867,"BSTAR":0.00046306259,"MEAN_MOTION_DOT":8.192e-5,"MEAN_MOTION_DDOT":0}]
